[{"OBJECT_NAME":"STARLINK-34687","OBJECT_ID":"2025-157F","EPOCH":"2025-09-05T03:16:02.990208","MEAN_MOTION":15.43769601,"ECCENTRICITY":0.00129215,"INCLINATION":53.1616,"RA_OF_ASC_NODE":137.5486,"ARG_OF_PERICENTER":57.6239,"MEAN_ANOMALY":302.6017,"EPHEMERIS_TYPE":0,"CLASSIFICATION_TYPE":"U","NORAD_CAT_ID":64909,"ELEMENT_SET_NO":999,"REV_AT_EPOCH":752,"BSTAR":0.12130428,"MEAN_MOTION_DOT":0.06602854,"MEAN_MOTION_DDOT":0},{"OBJECT_NAME":"STARLINK-34642","OBJECT_ID":"2025-157G","EPOCH":"2025-09-04T22:29:32.964576","MEAN_MOTION":15.39696606,"ECCENTRICITY":0.00016281,"INCLINATION":53.16,"RA_OF_ASC_NODE":139.1725,"ARG_OF_PERICENTER":29.1852,"MEAN_ANOMALY":330.9243,"EPHEMERIS_TYPE":0,"CLASSIFICATION_TYPE":"U","NORAD_CAT_ID":64910,"ELEMENT_SET_NO":999,"REV_AT_EPOCH":753,"BSTAR":0.0022753335,"MEAN_MOTION_DOT":0.00091949,"MEAN_MOTION_DDOT":0},{"OBJECT_NAME":"STARLINK-34718","OBJECT_ID":"2025-157H","EPOCH":"2025-09-04T23:49:39.394848","MEAN_MOTION":15.39703205,"ECCENTRICITY":8.903e-5,"INCLINATION":53.1602,"RA_OF_ASC_NODE":138.8076,"ARG_OF_PERICENTER":123.9065,"MEAN_ANOMALY":236.2025,"EPHEMERIS_TYPE":0,"CLASSIFICATION_TYPE":"U","NORAD_CAT_ID":64911,"ELEMENT_SET_NO":999,"REV_AT_EPOCH":754,"BSTAR":0.002598987,"MEAN_MOTION_DOT":0.00105292,"MEAN_MOTION_DDOT":0},{"OBJECT_NAME":"STARLINK-34711","OBJECT_ID":"2025-157J","EPOCH":"2025-09-04T22:09:29.391840","MEAN_MOTION":15.3970314,"ECCENTRICITY":6.574e-5,"INCLINATION":53.16,"RA_OF_ASC_NODE":139.082,"ARG_OF_PERICENTER":63.0405,"MEAN_ANOMALY":297.0667,"EPHEMERIS_TYPE":0,"CLASSIFICATION_TYPE":"U","NORAD_CAT_ID":64912,"ELEMENT_SET_NO":999,"REV_AT_EPOCH":753,"BSTAR":0.0024637607,"MEAN_MOTION_DOT":0.0009972,"MEAN_MOTION_DDOT":0},{"OBJECT_NAME":"STARLINK-34659","OBJECT_ID":"2025-157K","EPOCH":"2025-09-05T02:36:31.984992","MEAN_MOTION":15.39699032,"ECCENTRICITY":0.00016492,"INCLINATION":53.1604,"RA_OF_ASC_NODE":138.1058,"ARG_OF_PERICENTER":17.585,"MEAN_ANOMALY":342.5212,"EPHEMERIS_TYPE":0,"CLASSIFICATION_TYPE":"U","NORAD_CAT_ID":64913,"ELEMENT_SET_NO":999,"REV_AT_EPOCH":751,"BSTAR":0.0015041338,"MEAN_MOTION_DOT":0.000604,"MEAN_MOTION_DDOT":0},{"OBJECT_NAME":"STARLINK-34571","OBJECT_ID":"2025-157L","EPOCH":"2025-09-04T21:42:45.264384","MEAN_MOTION":15.39674814,"ECCENTRICITY":6.289e-5,"INCLINATION":53.1604,"RA_OF_ASC_NODE":138.9644,"ARG_OF_PERICENTER":85.7074,"MEAN_ANOMALY":274.4003,"EPHEMERIS_TYPE":0,"CLASSIFICATION_TYPE":"U","NORAD_CAT_ID":64914,"ELEMENT_SET_NO":999,"REV_AT_EPOCH":748,"BSTAR":0.0021956128,"MEAN_MOTION_DOT":0.0008861,"MEAN_MOTION_DDOT":0},{"OBJECT_NAME":"STARLINK-34636","OBJECT_ID":"2025-157M","EPOCH":"2025-09-04T23:02:48.138432","MEAN_MOTION":15.39789948,"ECCENTRICITY":0.00011747,"INCLINATION":53.1604,"RA_OF_ASC_NODE":138.5983,"ARG_OF_PERICENTER":50.2537,"MEAN_ANOMALY":309.8571,"EPHEMERIS_TYPE":0,"CLASSIFICATION_TYPE":"U","NORAD_CAT_ID":64915,"ELEMENT_SET_NO":999,"REV_AT_EPOCH":754,"BSTAR":0.002052008,"MEAN_MOTION_DOT":0.00083042,"MEAN_MOTION_DDOT":0},{"OBJECT_NAME":"STARLINK-34695","OBJECT_ID":"2025-157N","EPOCH":"2025-09-05T00:29:37.309344","MEAN_MOTION":15.39669464,"ECCENTRICITY":7.566e-5,"INCLINATION":53.1603,"RA_OF_ASC_NODE":138.2655,"ARG_OF_PERICENTER":51.4571,"MEAN_ANOMALY":308.6502,"EPHEMERIS_TYPE":0,"CLASSIFICATION_TYPE":"U","NORAD_CAT_ID":64916,"ELEMENT_SET_NO":999,"REV_AT_EPOCH":755,"BSTAR":0.0014387099,"MEAN_MOTION_DOT":0.00057678,"MEAN_MOTION_DDOT":0},{"OBJECT_NAME":"STARLINK-34653","OBJECT_ID":"2025-157P","EPOCH":"2025-09-05T01:49:43.700736","MEAN_MOTION":15.39706315,"ECCENTRICITY":0.0001115,"INCLINATION":53.1589,"RA_OF_ASC_NODE":137.8989,"ARG_OF_PERICENTER":42.1481,"MEAN_ANOMALY":317.961,"EPHEMERIS_TYPE":0,"CLASSIFICATION_TYPE":"U","NORAD_CAT_ID":64917,"ELEMENT_SET_NO":999,"REV_AT_EPOCH":751,"BSTAR":0.001969477,"MEAN_MOTION_DOT":0.00079428,"MEAN_MOTION_DDOT":0},{"OBJECT_NAME":"STARLINK-34611","OBJECT_ID":"2025-157Q","EPOCH":"2025-09-04T23:56:49.910496","MEAN_MOTION":15.3968241,"ECCENTRICITY":7.45e-5,"INCLINATION":53.1596,"RA_OF_ASC_NODE":138.8361,"ARG_OF_PERICENTER":82.4477,"MEAN_ANOMALY":277.6612,"EPHEMERIS_TYPE":0,"CLASSIFICATION_TYPE":"U","NORAD_CAT_ID":64918,"ELEMENT_SET_NO":999,"REV_AT_EPOCH":754,"BSTAR":0.0020781888,"MEAN_MOTION_DOT":0.00083817,"MEAN_MOTION_DDOT":0},{"OBJECT_NAME":"STARLINK-34599","OBJECT_ID":"2025-157R","EPOCH":"2025-09-05T03:30:20.832480","MEAN_MOTION":15.3976335,"ECCENTRICITY":8.124e-5,"INCLINATION":53.1608,"RA_OF_ASC_NODE":137.6141,"ARG_OF_PERICENTER":47.0353,"MEAN_ANOMALY":313.072,"EPHEMERIS_TYPE":0,"CLASSIFICATION_TYPE":"U","NORAD_CAT_ID":64919,"ELEMENT_SET_NO":999,"REV_AT_EPOCH":757,"BSTAR":0.0021425132,"MEAN_MOTION_DOT":0.00086688,"MEAN_MOTION_DDOT":0},{"OBJECT_NAME":"STARLINK-34069","OBJECT_ID":"2025-157S","EPOCH":"2025-09-04T22:16:52.467456","MEAN_MOTION":15.3492068,"ECCENTRICITY":0.00338012,"INCLINATION":53.1597,"RA_OF_ASC_NODE":139.1134,"ARG_OF_PERICENTER":72.262,"MEAN_ANOMALY":288.2067,"EPHEMERIS_TYPE":0,"CLASSIFICATION_TYPE":"U","NORAD_CAT_ID":64920,"ELEMENT_SET_NO":999,"REV_AT_EPOCH":753,"BSTAR":-0.11385324,"MEAN_MOTION_DOT":-0.03467062,"MEAN_MOTION_DDOT":0},{"OBJECT_NAME":"STARLINK-34699","OBJECT_ID":"2025-157T","EPOCH":"2025-09-05T02:50:23.568576","MEAN_MOTION":15.39738253,"ECCENTRICITY":0.00013695,"INCLINATION":53.1598,"RA_OF_ASC_NODE":138.1649,"ARG_OF_PERICENTER":92.3687,"MEAN_ANOMALY":267.7475,"EPHEMERIS_TYPE":0,"CLASSIFICATION_TYPE":"U","NORAD_CAT_ID":64921,"ELEMENT_SET_NO":999,"REV_AT_EPOCH":756,"BSTAR":0.0025403527,"MEAN_MOTION_DOT":0.00102996,"MEAN_MOTION_DDOT":0},{"OBJECT_NAME":"STARLINK-34700","OBJECT_ID":"2025-157U","EPOCH":"2025-09-05T02:37:01.497504","MEAN_MOTION":15.39715797,"ECCENTRICITY":5.515e-5,"INCLINATION":53.1603,"RA_OF_ASC_NODE":138.104,"ARG_OF_PERICENTER":57.8644,"MEAN_ANOMALY":302.2414,"EPHEMERIS_TYPE":0,"CLASSIFICATION_TYPE":"U","NORAD_CAT_ID":64922,"ELEMENT_SET_NO":999,"REV_AT_EPOCH":751,"BSTAR":0.0022353011,"MEAN_MOTION_DOT":0.00090362,"MEAN_MOTION_DDOT":0},{"OBJECT_NAME":"STARLINK-34643","OBJECT_ID":"2025-157V","EPOCH":"2025-09-04T23:16:42.122208","MEAN_MOTION":15.39699468,"ECCENTRICITY":6.428e-5,"INCLINATION":53.1604,"RA_OF_ASC_NODE":138.6592,"ARG_OF_PERICENTER":79.0949,"MEAN_ANOMALY":281.0128,"EPHEMERIS_TYPE":0,"CLASSIFICATION_TYPE":"U","NORAD_CAT_ID":64923,"ELEMENT_SET_NO":999,"REV_AT_EPOCH":754,"BSTAR":0.0022104934,"MEAN_MOTION_DOT":0.00089293,"MEAN_MOTION_DDOT":0},{"OBJECT_NAME":"STARLINK-34199","OBJECT_ID":"2025-157W","EPOCH":"2025-09-04T23:23:23.835552","MEAN_MOTION":15.3968686,"ECCENTRICITY":6.804e-5,"INCLINATION":53.1608,"RA_OF_ASC_NODE":138.6891,"ARG_OF_PERICENTER":89.3519,"MEAN_ANOMALY":270.7564,"EPHEMERIS_TYPE":0,"CLASSIFICATION_TYPE":"U","NORAD_CAT_ID":64924,"ELEMENT_SET_NO":999,"REV_AT_EPOCH":749,"BSTAR":0.0022511704,"MEAN_MOTION_DOT":0.00090926,"MEAN_MOTION_DDOT":0},{"OBJECT_NAME":"STARLINK-34579","OBJECT_ID":"2025-157X","EPOCH":"2025-09-04T22:03:15.822432","MEAN_MOTION":15.3209737,"ECCENTRICITY":0.0034374,"INCLINATION":53.1604,"RA_OF_ASC_NODE":139.0549,"ARG_OF_PERICENTER":81.0979,"MEAN_ANOMALY":279.3912,"EPHEMERIS_TYPE":0,"CLASSIFICATION_TYPE":"U","NORAD_CAT_ID":64925,"ELEMENT_SET_NO":999,"REV_AT_EPOCH":753,"BSTAR":-0.0018971223,"MEAN_MOTION_DOT":-0.00060676,"MEAN_MOTION_DDOT":0},{"OBJECT_NAME":"STARLINK-34543","OBJECT_ID":"2025-157Y","EPOCH":"2025-09-05T01:50:13.421472","MEAN_MOTION":15.39689916,"ECCENTRICITY":0.00010681,"INCLINATION":53.1597,"RA_OF_ASC_NODE":137.9014,"ARG_OF_PERICENTER":39.6736,"MEAN_ANOMALY":320.4347,"EPHEMERIS_TYPE":0,"CLASSIFICATION_TYPE":"U","NORAD_CAT_ID":64926,"ELEMENT_SET_NO":999,"REV_AT_EPOCH":751,"BSTAR":0.0018210503,"MEAN_MOTION_DOT":0.00073313,"MEAN_MOTION_DDOT":0},{"OBJECT_NAME":"STARLINK-34661","OBJECT_ID":"2025-157Z","EPOCH":"2025-09-05T01:43:32.256768","MEAN_MOTION":15.39687507,"ECCENTRICITY":8.635e-5,"INCLINATION":53.1594,"RA_OF_ASC_NODE":137.8593,"ARG_OF_PERICENTER":65.4661,"MEAN_ANOMALY":294.6434,"EPHEMERIS_TYPE":0,"CLASSIFICATION_TYPE":"U","NORAD_CAT_ID":64927,"ELEMENT_SET_NO":999,"REV_AT_EPOCH":729,"BSTAR":0.0018525891,"MEAN_MOTION_DOT":0.00074596,"MEAN_MOTION_DDOT":0},{"OBJECT_NAME":"STARLINK-34248","OBJECT_ID":"2025-157AA","EPOCH":"2025-09-05T02:16:29.089632","MEAN_MOTION":15.40226245,"ECCENTRICITY":0.00020784,"INCLINATION":53.1598,"RA_OF_ASC_NODE":138.0136,"ARG_OF_PERICENTER":6.318,"MEAN_ANOMALY":353.7851,"EPHEMERIS_TYPE":0,"CLASSIFICATION_TYPE":"U","NORAD_CAT_ID":64928,"ELEMENT_SET_NO":999,"REV_AT_EPOCH":756,"BSTAR":0.0014034099,"MEAN_MOTION_DOT":0.00057298,"MEAN_MOTION_DDOT":0},{"OBJECT_NAME":"STARLINK-34290","OBJECT_ID":"2025-157AB","EPOCH":"2025-09-04T23:03:39.892896","MEAN_MOTION":15.34747122,"ECCENTRICITY":0.00378312,"INCLINATION":53.1609,"RA_OF_ASC_NODE":138.5986,"ARG_OF_PERICENTER":77.0636,"MEAN_ANOMALY":283.4588,"EPHEMERIS_TYPE":0,"CLASSIFICATION_TYPE":"U","NORAD_CAT_ID":64929,"ELEMENT_SET_NO":999,"REV_AT_EPOCH":754,"BSTAR":-0.13533221,"MEAN_MOTION_DOT":-0.04117019,"MEAN_MOTION_DDOT":0},{"OBJECT_NAME":"STARLINK-34220","OBJECT_ID":"2025-157AC","EPOCH":"2025-09-04T22:29:53.859552","MEAN_MOTION":15.39676473,"ECCENTRICITY":0.0001103,"INCLINATION":53.1603,"RA_OF_ASC_NODE":138.4428,"ARG_OF_PERICENTER":72.0845,"MEAN_ANOMALY":288.028,"EPHEMERIS_TYPE":0,"CLASSIFICATION_TYPE":"U","NORAD_CAT_ID":64930,"ELEMENT_SET_NO":999,"REV_AT_EPOCH":743,"BSTAR":0.001877109,"MEAN_MOTION_DOT":0.00075571,"MEAN_MOTION_DDOT":0},{"OBJECT_NAME":"STARLINK-34715","OBJECT_ID":"2025-157AD","EPOCH":"2025-09-05T02:03:36.108576","MEAN_MOTION":15.39688634,"ECCENTRICITY":8.225e-5,"INCLINATION":53.1603,"RA_OF_ASC_NODE":137.9576,"ARG_OF_PERICENTER":56.9022,"MEAN_ANOMALY":303.2061,"EPHEMERIS_TYPE":0,"CLASSIFICATION_TYPE":"U","NORAD_CAT_ID":64931,"ELEMENT_SET_NO":999,"REV_AT_EPOCH":756,"BSTAR":0.0019741014,"MEAN_MOTION_DOT":0.00079571,"MEAN_MOTION_DDOT":0}]
